{
    "week": 289,
    "satellites": [
        {
            "Name": "BEIDOU-3 M8 (C28)",
            "Line1": "1 43108U 18003B   24297.37118140 -.00000073  00000+0  00000+0 0  9996",
            "Line2": "2 43108  54.8331 323.1922 0005182 258.6018 101.3808  1.86230918 46155",
            "SatelliteNumber": "43108",
            "Classification": "U",
            "LaunchYear": "18",
            "LaunchNumber": "003",
            "PieceOfLaunch": "B",
            "EpochYear": "24",
            "EpochDay": 297.3711814,
            "FirstDerivativeMeanMotion": -7.3e-07,
            "SecondDerivativeMeanMotion": "00000+0",
            "BSTAR": "00000+0",
            "SetNumber": "999",
            "Inclination": 54.8331,
            "RAAN": 323.1922,
            "Eccentricity": 0.0005182,
            "ArgumentOfPerigee": 258.6018,
            "MeanAnomaly": 101.3808,
            "MeanMotion": 1.86230918,
            "RevolutionNumber": "4615"
        },
        {
            "Name": "BEIDOU-3 M4 (C22)",
            "Line1": "1 43207U 18018A   24294.05359800 -.00000007  00000+0  00000+0 0  9991",
            "Line2": "2 43207  56.1261  83.1899 0004372  29.2695 330.7421  1.86231070 45474",
            "SatelliteNumber": "43207",
            "Classification": "U",
            "LaunchYear": "18",
            "LaunchNumber": "018",
            "PieceOfLaunch": "A",
            "EpochYear": "24",
            "EpochDay": 294.053598,
            "FirstDerivativeMeanMotion": -7e-08,
            "SecondDerivativeMeanMotion": "00000+0",
            "BSTAR": "00000+0",
            "SetNumber": "999",
            "Inclination": 56.1261,
            "RAAN": 83.1899,
            "Eccentricity": 0.0004372,
            "ArgumentOfPerigee": 29.2695,
            "MeanAnomaly": 330.7421,
            "MeanMotion": 1.8623107,
            "RevolutionNumber": "4547"
        },
        {
            "Name": "BEIDOU-3 M3 (C21)",
            "Line1": "1 43208U 18018B   24295.73108997 -.00000003  00000+0  00000+0 0  9993",
            "Line2": "2 43208  56.1273  83.1383 0004997 322.6609  37.2930  1.86231193 45508",
            "SatelliteNumber": "43208",
            "Classification": "U",
            "LaunchYear": "18",
            "LaunchNumber": "018",
            "PieceOfLaunch": "B",
            "EpochYear": "24",
            "EpochDay": 295.73108997,
            "FirstDerivativeMeanMotion": -3e-08,
            "SecondDerivativeMeanMotion": "00000+0",
            "BSTAR": "00000+0",
            "SetNumber": "999",
            "Inclination": 56.1273,
            "RAAN": 83.1383,
            "Eccentricity": 0.0004997,
            "ArgumentOfPerigee": 322.6609,
            "MeanAnomaly": 37.293,
            "MeanMotion": 1.86231193,
            "RevolutionNumber": "4550"
        },
        {
            "Name": "BEIDOU-3 M9 (C29)",
            "Line1": "1 43245U 18029A   24296.48819102 -.00000071  00000+0  00000+0 0  9991",
            "Line2": "2 43245  54.7197 320.9324 0002339 250.5123 109.5004  1.86232595 44672",
            "SatelliteNumber": "43245",
            "Classification": "U",
            "LaunchYear": "18",
            "LaunchNumber": "029",
            "PieceOfLaunch": "A",
            "EpochYear": "24",
            "EpochDay": 296.48819102,
            "FirstDerivativeMeanMotion": -7.1e-07,
            "SecondDerivativeMeanMotion": "00000+0",
            "BSTAR": "00000+0",
            "SetNumber": "999",
            "Inclination": 54.7197,
            "RAAN": 320.9324,
            "Eccentricity": 0.0002339,
            "ArgumentOfPerigee": 250.5123,
            "MeanAnomaly": 109.5004,
            "MeanMotion": 1.86232595,
            "RevolutionNumber": "4467"
        },
        {
            "Name": "BEIDOU-3 M10 (C30)",
            "Line1": "1 43246U 18029B   24296.41767449 -.00000072  00000+0  00000+0 0  9992",
            "Line2": "2 43246  54.7176 320.9631 0003173 342.3348  17.6923  1.86232849 44667",
            "SatelliteNumber": "43246",
            "Classification": "U",
            "LaunchYear": "18",
            "LaunchNumber": "029",
            "PieceOfLaunch": "B",
            "EpochYear": "24",
            "EpochDay": 296.41767449,
            "FirstDerivativeMeanMotion": -7.2e-07,
            "SecondDerivativeMeanMotion": "00000+0",
            "BSTAR": "00000+0",
            "SetNumber": "999",
            "Inclination": 54.7176,
            "RAAN": 320.9631,
            "Eccentricity": 0.0003173,
            "ArgumentOfPerigee": 342.3348,
            "MeanAnomaly": 17.6923,
            "MeanMotion": 1.86232849,
            "RevolutionNumber": "4466"
        },
        {
            "Name": "BEIDOU-2 IGSO-7 (C16)",
            "Line1": "1 43539U 18057A   24296.56191875 -.00000117  00000+0  00000+0 0  9998",
            "Line2": "2 43539  55.1469 168.2788 0077968 232.7500 306.1030  1.00273023 23086",
            "SatelliteNumber": "43539",
            "Classification": "U",
            "LaunchYear": "18",
            "LaunchNumber": "057",
            "PieceOfLaunch": "A",
            "EpochYear": "24",
            "EpochDay": 296.56191875,
            "FirstDerivativeMeanMotion": -1.17e-06,
            "SecondDerivativeMeanMotion": "00000+0",
            "BSTAR": "00000+0",
            "SetNumber": "999",
            "Inclination": 55.1469,
            "RAAN": 168.2788,
            "Eccentricity": 0.0077968,
            "ArgumentOfPerigee": 232.75,
            "MeanAnomaly": 306.103,
            "MeanMotion": 1.00273023,
            "RevolutionNumber": "2308"
        },
        {
            "Name": "BEIDOU-3 M5 (C23)",
            "Line1": "1 43581U 18062A   24297.17962018 -.00000026  00000+0  00000+0 0  9993",
            "Line2": "2 43581  54.1178 202.7783 0003157 308.0268  51.9926  1.86228718 42428",
            "SatelliteNumber": "43581",
            "Classification": "U",
            "LaunchYear": "18",
            "LaunchNumber": "062",
            "PieceOfLaunch": "A",
            "EpochYear": "24",
            "EpochDay": 297.17962018,
            "FirstDerivativeMeanMotion": -2.6e-07,
            "SecondDerivativeMeanMotion": "00000+0",
            "BSTAR": "00000+0",
            "SetNumber": "999",
            "Inclination": 54.1178,
            "RAAN": 202.7783,
            "Eccentricity": 0.0003157,
            "ArgumentOfPerigee": 308.0268,
            "MeanAnomaly": 51.9926,
            "MeanMotion": 1.86228718,
            "RevolutionNumber": "4242"
        },
        {
            "Name": "BEIDOU-3 M6 (C24)",
            "Line1": "1 43582U 18062B   24295.97089303 -.00000008  00000+0  00000+0 0  9997",
            "Line2": "2 43582  54.1177 202.8089 0006193  25.9340 334.1476  1.86229803 42407",
            "SatelliteNumber": "43582",
            "Classification": "U",
            "LaunchYear": "18",
            "LaunchNumber": "062",
            "PieceOfLaunch": "B",
            "EpochYear": "24",
            "EpochDay": 295.97089303,
            "FirstDerivativeMeanMotion": -8e-08,
            "SecondDerivativeMeanMotion": "00000+0",
            "BSTAR": "00000+0",
            "SetNumber": "999",
            "Inclination": 54.1177,
            "RAAN": 202.8089,
            "Eccentricity": 0.0006193,
            "ArgumentOfPerigee": 25.934,
            "MeanAnomaly": 334.1476,
            "MeanMotion": 1.86229803,
            "RevolutionNumber": "4240"
        },
        {
            "Name": "BEIDOU-3 M12 (C26)",
            "Line1": "1 43602U 18067A   24296.44132064 -.00000015  00000+0  00000+0 0  9999",
            "Line2": "2 43602  54.2088 201.4861 0008110  28.8539 331.2428  1.86227635 41896",
            "SatelliteNumber": "43602",
            "Classification": "U",
            "LaunchYear": "18",
            "LaunchNumber": "067",
            "PieceOfLaunch": "A",
            "EpochYear": "24",
            "EpochDay": 296.44132064,
            "FirstDerivativeMeanMotion": -1.5e-07,
            "SecondDerivativeMeanMotion": "00000+0",
            "BSTAR": "00000+0",
            "SetNumber": "999",
            "Inclination": 54.2088,
            "RAAN": 201.4861,
            "Eccentricity": 0.000811,
            "ArgumentOfPerigee": 28.8539,
            "MeanAnomaly": 331.2428,
            "MeanMotion": 1.86227635,
            "RevolutionNumber": "4189"
        },
        {
            "Name": "BEIDOU-3 M11 (C25)",
            "Line1": "1 43603U 18067B   24296.03775399 -.00000009  00000+0  00000+0 0  9992",
            "Line2": "2 43603  54.2062 201.4646 0004781  20.2342 339.8375  1.86227180 41911",
            "SatelliteNumber": "43603",
            "Classification": "U",
            "LaunchYear": "18",
            "LaunchNumber": "067",
            "PieceOfLaunch": "B",
            "EpochYear": "24",
            "EpochDay": 296.03775399,
            "FirstDerivativeMeanMotion": -9e-08,
            "SecondDerivativeMeanMotion": "00000+0",
            "BSTAR": "00000+0",
            "SetNumber": "999",
            "Inclination": 54.2062,
            "RAAN": 201.4646,
            "Eccentricity": 0.0004781,
            "ArgumentOfPerigee": 20.2342,
            "MeanAnomaly": 339.8375,
            "MeanMotion": 1.8622718,
            "RevolutionNumber": "4191"
        }
    ]
}